[
    {
        "OBJECT_NAME": "METOP-SGA1",
        "OBJECT_ID": "2025-172A",
        "EPOCH": "2026-06-08T03:05:58.435584",
        "MEAN_MOTION": 14.21508416,
        "ECCENTRICITY": 9.4e-5,
        "INCLINATION": 98.6646,
        "RA_OF_ASC_NODE": 219.022,
        "ARG_OF_PERICENTER": 87.4987,
        "MEAN_ANOMALY": 272.6298,
        "EPHEMERIS_TYPE": 0,
        "CLASSIFICATION_TYPE": "U",
        "NORAD_CAT_ID": 65159,
        "ELEMENT_SET_NO": 999,
        "REV_AT_EPOCH": 4250,
        "BSTAR": 4.368e-5,
        "MEAN_MOTION_DOT": 5.2e-7,
        "MEAN_MOTION_DDOT": 0
    },
    {
        "OBJECT_NAME": "FENGYUN 3H",
        "OBJECT_ID": "2025-219A",
        "EPOCH": "2026-06-08T02:12:15.178176",
        "MEAN_MOTION": 14.19918952,
        "ECCENTRICITY": 0.0001635,
        "INCLINATION": 98.6766,
        "RA_OF_ASC_NODE": 100.038,
        "ARG_OF_PERICENTER": 83.878,
        "MEAN_ANOMALY": 276.2582,
        "EPHEMERIS_TYPE": 0,
        "CLASSIFICATION_TYPE": "U",
        "NORAD_CAT_ID": 65815,
        "ELEMENT_SET_NO": 999,
        "REV_AT_EPOCH": 3609,
        "BSTAR": 5.5415e-5,
        "MEAN_MOTION_DOT": 7.4e-7,
        "MEAN_MOTION_DDOT": 0
    }
]