METOP-SGA1              
1 65159U 25172A   26159.12914856  .00000052  00000+0  43680-4 0  9993
2 65159  98.6646 219.0220 0000940  87.4987 272.6298 14.21508416 42508
FENGYUN 3H              
1 65815U 25219A   26159.09184234  .00000074  00000+0  55415-4 0  9992
2 65815  98.6766 100.0380 0001635  83.8780 276.2582 14.19918952 36099
